KUIPER-00016            
1 63732U 25088J   25330.86209263 -.00000110  00000+0  15060-4 0  9991
2 63732  51.8984 206.2987 0013875  85.0350 275.2196 14.79941763 32106
KUIPER-00018            
1 63733U 25088K   25330.80702538 -.00009085  00000+0 -11632-2 0  9999
2 63733  51.8999 195.4938 0013946 106.6200 253.6295 14.79883532 32256
KUIPER-00019            
1 63734U 25088L   25330.80805947 -.00009457  00000+0 -12130-2 0  9995
2 63734  51.8983 194.0398 0010183 116.6253 243.5754 14.79889851 32274
KUIPER-00020            
1 63735U 25088M   25330.87183338  .00011418  00000+0  15229-2 0  9996
2 63735  51.8996 197.7372 0009352  98.2981 261.9042 14.79949977 32438
KUIPER-00021            
1 63736U 25088N   25330.87017025  .00001389  00000+0  21139-3 0  9990
2 63736  51.9002 198.7452 0008068  97.1033 263.0848 14.79930145 32251
KUIPER-00023            
1 63737U 25088P   25330.86917527  .00004189  00000+0  57768-3 0  9994
2 63737  51.8979 200.2165 0012302 115.9497 244.2734 14.79943955 32532
KUIPER-00024            
1 63738U 25088Q   25330.80765630  .00002381  00000+0  34350-3 0  9999
2 63738  51.9005 187.9534 0005285 110.8489 249.3040 14.79653014 32824
KUIPER-00025            
1 63739U 25088R   25330.86313708  .00002685  00000+0  37598-3 0  9995
2 63739  51.8987 196.2000 0009921  94.7977 265.4119 14.80522005 32572
